{"type": "FeatureCollection", "features": [ {"type": "Feature", "properties": {"norad_id": 66373, "name": "STARLINK-35809", "group": "last-30-days", "lat": -32.492457177621404, "lon": -63.22153180806962, "alt_km": 351.05331498807664, "timestamp": "2025-12-02T13:52:16.063936+00:00", "meta": {"OBJECT_NAME": "STARLINK-35809", "OBJECT_ID": "2025-254AB", "EPOCH": "2025-12-02T04:54:29.784096", "MEAN_MOTION": 15.74249924, "ECCENTRICITY": 0.00012113, "INCLINATION": 53.1569, "RA_OF_ASC_NODE": 327.1581, "ARG_OF_PERICENTER": 108.6954, "MEAN_ANOMALY": 251.4198, "EPHEMERIS_TYPE": 0, "CLASSIFICATION_TYPE": "U", "NORAD_CAT_ID": 66373, "ELEMENT_SET_NO": 999, "REV_AT_EPOCH": 402, "BSTAR": 0.0013206433, "MEAN_MOTION_DOT": 0.00197912, "MEAN_MOTION_DDOT": 0}, "tle": {"line1": "1 66373U 25254AB  25336.20451139  .00197912  00000+0  13206-2 0  9999", "line2": "2 66373  53.1569 327.1581 0001211 108.6954 251.4198 15.74249924  4024"}}, "geometry": {"type": "Point", "coordinates": [-63.22153180806962, -32.492457177621404]}}, {"type": "Feature", "properties": {"norad_id": 66374, "name": "STARLINK-35831", "group": "last-30-days", "lat": -31.1313633482304, "lon": -61.628623441288866, "alt_km": 350.8198830897845, "timestamp": "2025-12-02T13:52:16.063946+00:00", "meta": {"OBJECT_NAME": "STARLINK-35831", "OBJECT_ID": "2025-254AC", "EPOCH": "2025-12-02T06:25:25.760928", "MEAN_MOTION": 15.74279865, "ECCENTRICITY": 0.00012558, "INCLINATION": 53.1569, "RA_OF_ASC_NODE": 326.8407, "ARG_OF_PERICENTER": 96.9476, "MEAN_ANOMALY": 263.1687, "EPHEMERIS_TYPE": 0, "CLASSIFICATION_TYPE": "U", "NORAD_CAT_ID": 66374, "ELEMENT_SET_NO": 999, "REV_AT_EPOCH": 403, "BSTAR": 0.0014924242, "MEAN_MOTION_DOT": 0.0022475, "MEAN_MOTION_DDOT": 0}, "tle": {"line1": "1 66374U 25254AC  25336.26765927  .00224750  00000+0  14924-2 0  9998", "line2": "2 66374  53.1569 326.8407 0001255  96.9476 263.1687 15.74279865  4035"}}, "geometry": {"type": "Point", "coordinates": [-61.628623441288866, -31.1313633482304]}}, {"type": "Feature", "properties": {"norad_id": 66375, "name": "STARLINK-35826", "group": "last-30-days", "lat": -29.696714993447316, "lon": -60.02235257776854, "alt_km": 350.79219396277404, "timestamp": "2025-12-02T13:52:16.063956+00:00", "meta": {"OBJECT_NAME": "STARLINK-35826", "OBJECT_ID": "2025-254AD", "EPOCH": "2025-12-02T04:53:31.327584", "MEAN_MOTION": 15.74280996, "ECCENTRICITY": 0.00013647, "INCLINATION": 53.1566, "RA_OF_ASC_NODE": 327.1531, "ARG_OF_PERICENTER": 129.8567, "MEAN_ANOMALY": 230.2574, "EPHEMERIS_TYPE": 0, "CLASSIFICATION_TYPE": "U", "NORAD_CAT_ID": 66375, "ELEMENT_SET_NO": 999, "REV_AT_EPOCH": 402, "BSTAR": 0.0018777904, "MEAN_MOTION_DOT": 0.00285015, "MEAN_MOTION_DDOT": 0}, "tle": {"line1": "1 66375U 25254AD  25336.20383481  .00285015  00000+0  18778-2 0  9996", "line2": "2 66375  53.1566 327.1531 0001364 129.8567 230.2574 15.74280996  4029"}}, "geometry": {"type": "Point", "coordinates": [-60.02235257776854, -29.696714993447316]}}, {"type": "Feature", "properties": {"norad_id": 66376, "name": "SHIYAN-32 01", "group": "last-30-days", "lat": -13.65331269253988, "lon": -144.18507094336883, "alt_km": 433.9130402083247, "timestamp": "2025-12-02T13:52:16.063966+00:00", "meta": {"OBJECT_NAME": "SHIYAN-32 01", "OBJECT_ID": "2025-255A", "EPOCH": "2025-12-02T06:10:07.526784", "MEAN_MOTION": 15.42220728, "ECCENTRICITY": 0.00133822, "INCLINATION": 52.9964, "RA_OF_ASC_NODE": 227.8956, "ARG_OF_PERICENTER": 9.6935, "MEAN_ANOMALY": 350.4325, "EPHEMERIS_TYPE": 0, "CLASSIFICATION_TYPE": "U", "NORAD_CAT_ID": 66376, "ELEMENT_SET_NO": 999, "REV_AT_EPOCH": 373, "BSTAR": 0.00055053782, "MEAN_MOTION_DOT": 0.00023738, "MEAN_MOTION_DDOT": 0}, "tle": {"line1": "1 66376U 25255A   25336.25703156  .00023738  00000+0  55054-3 0  9999", "line2": "2 66376  52.9964 227.8956 0013382   9.6935 350.4325 15.42220728  3731"}}, "geometry": {"type": "Point", "coordinates": [-144.18507094336883, -13.65331269253988]}}, {"type": "Feature", "properties": {"norad_id": 66377, "name": "CZ-11 DEB", "group": "last-30-days", "lat": 34.5904876928509, "lon": -102.4146672323109, "alt_km": 423.97028215206774, "timestamp": "2025-12-02T13:52:16.063979+00:00", "meta": {"OBJECT_NAME": "CZ-11 DEB", "OBJECT_ID": "2025-255B", "EPOCH": "2025-12-02T05:54:20.689920", "MEAN_MOTION": 15.43422506, "ECCENTRICITY": 0.00139135, "INCLINATION": 52.9965, "RA_OF_ASC_NODE": 227.8262, "ARG_OF_PERICENTER": 7.2692, "MEAN_ANOMALY": 352.8511, "EPHEMERIS_TYPE": 0, "CLASSIFICATION_TYPE": "U", "NORAD_CAT_ID": 66377, "ELEMENT_SET_NO": 999, "REV_AT_EPOCH": 359, "BSTAR": 0.00096034802, "MEAN_MOTION_DOT": 0.00043578, "MEAN_MOTION_DDOT": 0}, "tle": {"line1": "1 66377U 25255B   25336.24607280  .00043578  00000+0  96035-3 0  9998", "line2": "2 66377  52.9965 227.8262 0013913   7.2692 352.8511 15.43422506  3593"}}, "geometry": {"type": "Point", "coordinates": [-102.4146672323109, 34.5904876928509]}}, {"type": "Feature", "properties": {"norad_id": 66378, "name": "SHIYAN-32 02", "group": "last-30-days", "lat": 49.447554621277405, "lon": -71.99757863234055, "alt_km": 423.7694804215098, "timestamp": "2025-12-02T13:52:16.063989+00:00", "meta": {"OBJECT_NAME": "SHIYAN-32 02", "OBJECT_ID": "2025-255C", "EPOCH": "2025-12-02T05:47:35.112768", "MEAN_MOTION": 15.43930613, "ECCENTRICITY": 0.00126338, "INCLINATION": 52.9979, "RA_OF_ASC_NODE": 227.7986, "ARG_OF_PERICENTER": 8.6569, "MEAN_ANOMALY": 351.4651, "EPHEMERIS_TYPE": 0, "CLASSIFICATION_TYPE": "U", "NORAD_CAT_ID": 66378, "ELEMENT_SET_NO": 999, "REV_AT_EPOCH": 359, "BSTAR": 0.0011780523, "MEAN_MOTION_DOT": 0.00054531, "MEAN_MOTION_DDOT": 0}, "tle": {"line1": "1 66378U 25255C   25336.24137862  .00054531  00000+0  11781-2 0  9998", "line2": "2 66378  52.9979 227.7986 0012633   8.6569 351.4651 15.43930613  3590"}}, "geometry": {"type": "Point", "coordinates": [-71.99757863234055, 49.447554621277405]}}, {"type": "Feature", "properties": {"norad_id": 66379, "name": "SHIYAN-32 03", "group": "last-30-days", "lat": 10.672776314120787, "lon": -125.51735054460687, "alt_km": 427.36162720436005, "timestamp": "2025-12-02T13:52:16.064001+00:00", "meta": {"OBJECT_NAME": "SHIYAN-32 03", "OBJECT_ID": "2025-255D", "EPOCH": "2025-12-02T04:29:01.533984", "MEAN_MOTION": 15.42574599, "ECCENTRICITY": 0.00153989, "INCLINATION": 52.9971, "RA_OF_ASC_NODE": 228.1704, "ARG_OF_PERICENTER": 10.3875, "MEAN_ANOMALY": 349.7444, "EPHEMERIS_TYPE": 0, "CLASSIFICATION_TYPE": "U", "NORAD_CAT_ID": 66379, "ELEMENT_SET_NO": 999, "REV_AT_EPOCH": 360, "BSTAR": 0.00055854174, "MEAN_MOTION_DOT": 0.00024407, "MEAN_MOTION_DDOT": 0}, "tle": {"line1": "1 66379U 25255D   25336.18682331  .00024407  00000+0  55854-3 0  9997", "line2": "2 66379  52.9971 228.1704 0015398  10.3875 349.7444 15.42574599  3605"}}, "geometry": {"type": "Point", "coordinates": [-125.51735054460687, 10.672776314120787]}}, {"type": "Feature", "properties": {"norad_id": 66380, "name": "STARLINK-35139", "group": "last-30-days", "lat": -25.85885721764138, "lon": -68.77136489517805, "alt_km": 451.296470849401, "timestamp": "2025-12-02T13:52:16.064012+00:00", "meta": {"OBJECT_NAME": "STARLINK-35139", "OBJECT_ID": "2025-257A", "EPOCH": "2025-12-02T06:00:02.999808", "MEAN_MOTION": 15.395704, "ECCENTRICITY": 0.00011451, "INCLINATION": 53.159, "RA_OF_ASC_NODE": 314.0828, "ARG_OF_PERICENTER": 91.3004, "MEAN_ANOMALY": 217.1914, "EPHEMERIS_TYPE": 0, "CLASSIFICATION_TYPE": "U", "NORAD_CAT_ID": 66380, "ELEMENT_SET_NO": 999, "REV_AT_EPOCH": 475, "BSTAR": 0.0011203799, "MEAN_MOTION_DOT": 0.00044604, "MEAN_MOTION_DDOT": 0}, "tle": {"line1": "1 66380U 25257A   25336.25003472  .00044604  00000+0  11204-2 0  9993", "line2": "2 66380  53.1590 314.0828 0001145  91.3004 217.1914 15.39570400  4757"}}, "geometry": {"type": "Point", "coordinates": [-68.77136489517805, -25.85885721764138]}}, {"type": "Feature", "properties": {"norad_id": 66381, "name": "STARLINK-35158", "group": "last-30-days", "lat": -24.486246470177875, "lon": -67.43278089826084, "alt_km": 451.325538011768, "timestamp": "2025-12-02T13:52:16.064022+00:00", "meta": {"OBJECT_NAME": "STARLINK-35158", "OBJECT_ID": "2025-257B", "EPOCH": "2025-12-02T06:00:02.999808", "MEAN_MOTION": 15.39571328, "ECCENTRICITY": 0.00014158, "INCLINATION": 53.1591, "RA_OF_ASC_NODE": 314.0786, "ARG_OF_PERICENTER": 94.7622, "MEAN_ANOMALY": 215.5668, "EPHEMERIS_TYPE": 0, "CLASSIFICATION_TYPE": "U", "NORAD_CAT_ID": 66381, "ELEMENT_SET_NO": 999, "REV_AT_EPOCH": 481, "BSTAR": 0.0010427207, "MEAN_MOTION_DOT": 0.00041469, "MEAN_MOTION_DDOT": 0}, "tle": {"line1": "1 66381U 25257B   25336.25003472  .00041469  00000+0  10427-2 0  9996", "line2": "2 66381  53.1591 314.0786 0001415  94.7622 215.5668 15.39571328  4810"}}, "geometry": {"type": "Point", "coordinates": [-67.43278089826084, -24.486246470177875]}}, {"type": "Feature", "properties": {"norad_id": 66382, "name": "STARLINK-35639", "group": "last-30-days", "lat": -6.5930316333902415, "lon": -52.485598085768174, "alt_km": 444.0787018221017, "timestamp": "2025-12-02T13:52:16.064032+00:00", "meta": {"OBJECT_NAME": "STARLINK-35639", "OBJECT_ID": "2025-257C", "EPOCH": "2025-12-02T06:00:02.999808", "MEAN_MOTION": 15.42553293, "ECCENTRICITY": 0.00016957, "INCLINATION": 53.1593, "RA_OF_ASC_NODE": 314.0367, "ARG_OF_PERICENTER": 95.21, "MEAN_ANOMALY": 235.2894, "EPHEMERIS_TYPE": 0, "CLASSIFICATION_TYPE": "U", "NORAD_CAT_ID": 66382, "ELEMENT_SET_NO": 999, "REV_AT_EPOCH": 481, "BSTAR": -0.042212223, "MEAN_MOTION_DOT": -0.01663638, "MEAN_MOTION_DDOT": 0}, "tle": {"line1": "1 66382U 25257C   25336.25003472 -.01663638  00000+0 -42212-1 0  9994", "line2": "2 66382  53.1593 314.0367 0001695  95.2100 235.2894 15.42553293  4810"}}, "geometry": {"type": "Point", "coordinates": [-52.485598085768174, -6.5930316333902415]}}]}